[Satellite]
VERSION=1.1
NAME=CATSAT-1
NICKNAME=CATSAT-1
TLE1=1 44033U 98067PZ  19317.43316037  .00011326  00000-0  14789-3 0  9997
TLE2=2 44033  51.6393 330.7915 0004809 354.6154   5.4786 15.59187482 44514
STATUS=0
